{"type":"FeatureCollection","features":[{"type":"Feature","properties":{"key":"abkhazia","nameEn":"Abkhazia","nameKa":"აფხაზეთი"},"geometry":{"type":"Polygon","coordinates":[[[42.1543,43.2175],[42.1403,43.1938],[42.1293,43.1679],[42.133,43.1392],[42.1335,43.1114],[42.1292,43.1034],[42.1194,43.0832],[42.0995,43.059],[42.0763,43.0397],[42.0573,43.0169],[42.0051,43.0005],[41.9456,42.9929],[41.908,42.9872],[41.9002,42.9798],[41.8845,42.9646],[41.9022,42.9479],[41.9107,42.9271],[41.9178,42.9],[41.9182,42.8984],[41.9258,42.8823],[41.9309,42.8606],[41.9155,42.8452],[41.903,42.8393],[41.8923,42.8308],[41.8915,42.8201],[41.8989,42.8109],[41.9095,42.7649],[41.9088,42.7574],[41.9082,42.739],[41.9122,42.7146],[41.9404,42.679],[41.9441,42.6551],[41.9471,42.6358],[41.9383,42.618],[41.9204,42.6097],[41.8995,42.5971],[41.8867,42.5822],[41.8837,42.58],[41.8037,42.5222],[41.7226,42.4864],[41.7174,42.4851],[41.6649,42.4714],[41.6513,42.4588],[41.6292,42.4384],[41.5913,42.4208],[41.58,42.4167],[41.5562,42.4082],[41.5512,42.4065],[41.5002,42.6406],[41.4828,42.6802],[41.4574,42.7137],[41.4243,42.7399],[41.3835,42.7573],[41.3073,42.7676],[41.291,42.7744],[41.2749,42.7853],[41.2507,42.7952],[41.2254,42.8023],[41.2053,42.8044],[41.1937,42.8019],[41.1736,42.7928],[41.1609,42.7908],[41.1502,42.7956],[41.1047,42.8466],[41.0818,42.9081],[41.0403,42.9613],[41.0231,42.99],[40.9984,42.9894],[40.959,42.9764],[40.9338,42.9827],[40.904,43.0163],[40.8866,43.0242],[40.8862,43.0293],[40.8628,43.059],[40.856,43.0631],[40.7831,43.0842],[40.6829,43.0943],[40.6362,43.0925],[40.604,43.0865],[40.5918,43.0856],[40.5799,43.0888],[40.5607,43.103],[40.5505,43.1061],[40.5461,43.1088],[40.529,43.1223],[40.5202,43.1273],[40.5103,43.13],[40.4785,43.134],[40.3983,43.1623],[40.3612,43.1655],[40.3351,43.1409],[40.325,43.1488],[40.3103,43.1757],[40.301,43.1887],[40.2783,43.2055],[40.2684,43.2164],[40.2728,43.248],[40.2572,43.2774],[40.2352,43.3044],[40.2191,43.319],[40.1882,43.3296],[40.1335,43.3416],[40.1013,43.3652],[40.0869,43.3703],[40.0408,43.3758],[40.0098,43.3852],[39.986,43.389],[39.9913,43.4063],[40.0592,43.5352],[40.0728,43.5511],[40.0967,43.5626],[40.1643,43.5758],[40.2331,43.5758],[40.4798,43.5087],[40.5196,43.5052],[40.5508,43.5112],[40.6155,43.5358],[40.6519,43.539],[40.6811,43.5281],[40.69,43.5231],[40.7402,43.4953],[40.8427,43.4694],[40.875,43.4556],[41.0118,43.3754],[41.0425,43.3698],[41.1467,43.3799],[41.1808,43.3747],[41.2131,43.3628],[41.2439,43.3442],[41.2788,43.3332],[41.3503,43.3434],[41.3807,43.3348],[41.3898,43.3249],[41.4038,43.3015],[41.4131,43.2913],[41.4276,43.2832],[41.4798,43.2712],[41.5061,43.2598],[41.5506,43.2263],[41.5775,43.2153],[41.6141,43.213],[41.6874,43.2202],[41.7238,43.2172],[41.7889,43.2036],[41.8203,43.2012],[41.89,43.207],[41.9193,43.2059],[41.9483,43.2001],[41.9797,43.1887],[42.0113,43.1819],[42.0434,43.1806],[42.0753,43.1853],[42.1543,43.2175]]]}},{"type":"Feature","properties":{"key":"tskhinvali","nameEn":"Tskhinvali region","nameKa":"ცხინვალის რეგიონი"},"geometry":{"type":"Polygon","coordinates":[[[43.7825,42.7532],[43.8006,42.7465],[43.8118,42.7173],[43.7887,42.6931],[43.7538,42.6747],[43.7257,42.6544],[43.7226,42.6249],[43.7511,42.5987],[43.7962,42.5898],[43.845,42.587],[43.8854,42.5792],[43.9082,42.5663],[43.9208,42.5591],[43.9397,42.5522],[43.9584,42.5544],[43.9732,42.564],[43.998,42.5894],[44.0115,42.6003],[44.0551,42.6153],[44.1508,42.6187],[44.1858,42.6265],[44.1974,42.6291],[44.2114,42.6396],[44.2241,42.6282],[44.2445,42.6048],[44.2633,42.5798],[44.2788,42.5844],[44.2992,42.5844],[44.3148,42.5602],[44.3334,42.5399],[44.364,42.5251],[44.374,42.5001],[44.3943,42.4799],[44.3788,42.4698],[44.3546,42.4549],[44.3834,42.4401],[44.4093,42.4299],[44.4341,42.4401],[44.4537,42.4346],[44.484,42.3948],[44.5146,42.3746],[44.5441,42.3699],[44.5739,42.3495],[44.5942,42.3495],[44.6293,42.3301],[44.6191,42.3097],[44.6042,42.2949],[44.5988,42.2801],[44.6191,42.2646],[44.644,42.2247],[44.644,42.2053],[44.6487,42.1943],[44.6393,42.1748],[44.644,42.1397],[44.6089,42.1295],[44.5894,42.1147],[44.5988,42.0944],[44.5832,42.0694],[44.5544,42.0398],[44.5387,42.0203],[44.5146,42],[44.497,41.9965],[44.4638,41.9899],[44.4443,42.0101],[44.424,42.0101],[44.399,41.9945],[44.364,41.9899],[44.3334,42],[44.308,42.0065],[44.2937,42.0101],[44.2937,42.0249],[44.2937,42.0499],[44.2843,42.0601],[44.2661,42.0689],[44.2539,42.0749],[44.2039,42.0999],[44.1837,42.0897],[44.179,42.0647],[44.1596,42.0546],[44.1596,42.0647],[44.1493,42.0803],[44.1384,42.0999],[44.1142,42.1451],[44.0939,42.1701],[44.0588,42.1896],[44.0394,42.1803],[43.9793,42.1451],[43.9496,42.1451],[43.9145,42.1545],[43.9191,42.1451],[43.8989,42.0999],[43.8544,42.1053],[43.8638,42.0803],[43.8287,42.0546],[43.8091,42.0546],[43.7842,42.0803],[43.7842,42.11],[43.7085,42.1147],[43.7085,42.0897],[43.6936,42.0803],[43.6593,42.0999],[43.6187,42.1249],[43.6187,42.1498],[43.603,42.1661],[43.5992,42.1701],[43.5992,42.1896],[43.5889,42.2099],[43.5944,42.2301],[43.6126,42.2458],[43.6288,42.2599],[43.6362,42.2686],[43.6539,42.2895],[43.5837,42.3097],[43.5743,42.3301],[43.5992,42.355],[43.564,42.38],[43.5665,42.4004],[43.5687,42.4198],[43.564,42.4494],[43.5837,42.5001],[43.5837,42.5297],[43.564,42.5548],[43.5594,42.5844],[43.5992,42.6048],[43.6344,42.6446],[43.6889,42.6546],[43.7085,42.6898],[43.7545,42.6898],[43.7741,42.7148],[43.7826,42.7452],[43.7825,42.7532]]]}}]}
